0 CZ-4B DEB
1 38318U 12001E   13281.34101050  .00006698  00000-0  69104-3 0  2654
2 38318 097.4561 310.3405 0221480 267.0768 156.3923 14.74033751 89670
0 CZ-4B DEB
1 38318U 12001E   13281.89559149  .00012656  00000-0  12986-2 0  2667
2 38318 097.4559 310.8515 0221495 265.2636 219.3037 14.74043516 89759
0 CZ-4B DEB
1 38318U 12001E   13284.32657528  .00010056  00000-0  10324-2 0  2675
2 38318 097.4568 313.0902 0221459 257.3101 159.7435 14.74088680 90115
0 CZ-4B DEB
1 38318U 12001E   13285.27800122  .00008571  00000-0  88084-3 0  2689
2 38318 097.4559 313.9662 0221419 254.1422 168.8006 14.74101689 90259
0 CZ-4B DEB
1 38318U 12001E   13286.91828826  .00008105  00000-0  83268-3 0  2695
2 38318 097.4550 315.4773 0221408 248.7468 233.5818 14.74131376 90490
0 CZ-4B DEB
1 38318U 12001E   13288.05463544  .00015473  00000-0  15810-2 0  2709
2 38318 097.4546 316.5246 0221451 245.0416 144.0920 14.74157530 90651
0 CZ-4B DEB
1 38318U 12001E   13288.33251454  .00014160  00000-0  14473-2 0  2712
2 38318 097.4546 316.7808 0221476 244.1344 178.7947 14.74162091 90701
0 CZ-4B DEB
1 38318U 12001E   13291.04098968  .00010505  00000-0  10743-2 0  2729
2 38318 097.4541 319.2757 0221426 235.3133 152.9288 14.74220771 91095
0 CZ-4B DEB
1 38318U 12001E   13292.33750296  .00011219  00000-0  11459-2 0  2730
2 38318 097.4538 320.4699 0221458 231.0737 193.8689 14.74242451 91298
0 CZ-4B DEB
1 38318U 12001E   13293.35606606  .00012610  00000-0  12862-2 0  2744
2 38318 097.4533 321.4079 0221494 227.7265 199.7451 14.74261798 91448
